[{"OBJECT_NAME":"GEOSCAN 4 (RS92S4)","OBJECT_ID":"2025-155S","EPOCH":"2026-03-09T21:50:07.724832","MEAN_MOTION":15.30369837,"ECCENTRICITY":0.00070968,"INCLINATION":97.4465,"RA_OF_ASC_NODE":37.7626,"ARG_OF_PERICENTER":154.7045,"MEAN_ANOMALY":205.4544,"EPHEMERIS_TYPE":0,"CLASSIFICATION_TYPE":"U","NORAD_CAT_ID":64892,"ELEMENT_SET_NO":999,"REV_AT_EPOCH":6562,"BSTAR":0.00068609503,"MEAN_MOTION_DOT":0.00020121,"MEAN_MOTION_DDOT":0},{"OBJECT_NAME":"STARLINK-34908","OBJECT_ID":"2025-189G","EPOCH":"2026-03-09T16:02:39.359040","MEAN_MOTION":15.3019194,"ECCENTRICITY":0.0001095,"INCLINATION":53.1577,"RA_OF_ASC_NODE":206.8337,"ARG_OF_PERICENTER":85.1527,"MEAN_ANOMALY":274.9599,"EPHEMERIS_TYPE":0,"CLASSIFICATION_TYPE":"U","NORAD_CAT_ID":65329,"ELEMENT_SET_NO":999,"REV_AT_EPOCH":3110,"BSTAR":0.00094806723,"MEAN_MOTION_DOT":0.00027818,"MEAN_MOTION_DDOT":0}]
